NORAD_CAT_ID,OBJECT_NAME,OBJECT_TYPE,EPOCH,MEAN_MOTION,ECCENTRICITY,INCLINATION,RA_OF_ASC_NODE,ARG_OF_PERICENTER,MEAN_ANOMALY,BSTAR,MEAN_MOTION_DOT,MEAN_MOTION_DDOT,TLE_LINE0,TLE_LINE1,TLE_LINE2,SEMIMAJOR_AXIS,PERIOD,APOGEE,PERIGEE,DECAYED
52586.0,STARLINK-3910,PAYLOAD,2022-10-25 06:20:02,15.08824825,0.0001859,53.2191,247.2001,50.6892,309.4264,-0.00011871,-2.176e-05,0.0,0 STARLINK-3910,1 52586U 22051BC  22298.26391912 -.00002176  00000-0 -11871-3 0  9991,2 52586  53.2191 247.2001 0001859  50.6892 309.4264 15.08824825 25680,6917.927,95.439,541.078,538.506,0.0
52586.0,STARLINK-3910,PAYLOAD,2022-10-26 03:00:02,15.08835449,0.0001692,53.219,243.3381,43.9312,316.1815,-5.7229999999999976e-06,-3.79e-06,0.0,0 STARLINK-3910,1 52586U 22051BC  22299.12503076 -.00000379  00000-0 -57230-5 0  9997,2 52586  53.2190 243.3381 0001692  43.9312 316.1815 15.08835449 25887,6917.894,95.438,540.93,538.589,0.0
52586.0,STARLINK-3910,PAYLOAD,2022-10-26 18:53:54,15.08832786,0.0001853,53.2189,240.3637,48.2753,311.8397,0.00025096,3.707e-05,0.0,0 STARLINK-3910,1 52586U 22051BC  22299.78743184  .00003707  00000-0  25096-3 0  9994,2 52586  53.2189 240.3637 0001853  48.2753 311.8397 15.08832786 25914,6917.901999999999,95.438,541.049,538.486,0.0
52586.0,STARLINK-3910,PAYLOAD,2022-10-27 02:50:49,15.08838114,0.0001876999999999,53.2189,238.8769,51.4264,308.6896,0.00033001,4.968e-05,0.0,0 STARLINK-3910,1 52586U 22051BC  22300.11863004  .00004968  00000-0  33001-3 0  9993,2 52586  53.2189 238.8769 0001877  51.4264 308.6896 15.08838114 25965,6917.886,95.438,541.05,538.453,0.0
52586.0,STARLINK-3910,PAYLOAD,2022-10-27 18:44:40,15.08848566,0.0001875,53.2187,235.904,49.8321,310.2835,0.00020704,3.009e-05,0.0,0 STARLINK-3910,1 52586U 22051BC  22300.78102719  .00003009  00000-0  20704-3 0  9996,2 52586  53.2187 235.9040 0001875  49.8321 310.2835 15.08848566 26062,6917.854,95.437,541.016,538.422,0.0
52586.0,STARLINK-3910,PAYLOAD,2022-10-27 23:30:50,15.0884439,0.0001874,53.219,235.0118,50.6566,309.4592,0.0001631999999999,2.31e-05,0.0,0 STARLINK-3910,1 52586U 22051BC  22300.97975035  .00002310  00000-0  16320-3 0  9999,2 52586  53.2190 235.0118 0001874  50.6566 309.4592 15.08844390 26165,6917.8669999999975,95.437,541.028,538.436,0.0
52586.0,STARLINK-3910,PAYLOAD,2022-10-28 02:41:36,15.08848813,0.000188,53.218,234.4168,49.2428,310.8727,0.00015259,2.142e-05,0.0,0 STARLINK-3910,1 52586U 22051BC  22301.11222794  .00002142  00000-0  15259-3 0  9996,2 52586  53.2180 234.4168 0001880  49.2428 310.8727 15.08848813 26115,6917.853,95.437,541.019,538.418,0.0
52586.0,STARLINK-3910,PAYLOAD,2022-10-29 02:32:22,15.08853103,0.0001802,53.2179,229.956,48.5015,311.6131,3.4205e-05,2.56e-06,0.0,0 STARLINK-3910,1 52586U 22051BC  22302.10581820  .00000256  00000-0  34205-4 0  9991,2 52586  53.2179 229.9560 0001802  48.5015 311.6131 15.08853103 26336,6917.84,95.437,540.952,538.4590000000002,0.0
52586.0,STARLINK-3910,PAYLOAD,2022-10-29 18:26:14,15.08843555,0.0001825,53.2179,226.9832,50.7125,309.4029,0.00011596,1.558e-05,0.0,0 STARLINK-3910,1 52586U 22051BC  22302.76821961  .00001558  00000-0  11596-3 0  9999,2 52586  53.2179 226.9832 0001825  50.7125 309.4029 15.08843555 26361,6917.87,95.437,540.997,538.472,0.0
52586.0,STARLINK-3910,PAYLOAD,2022-10-29 23:12:23,15.08839857,0.0001808,53.2178,226.0906,48.1975,311.9172,0.00011573,1.554e-05,0.0,0 STARLINK-3910,1 52586U 22051BC  22302.96694087  .00001554  00000-0  11573-3 0  9999,2 52586  53.2178 226.0906 0001808  48.1975 311.9172 15.08839857 26466,6917.880999999999,95.438,540.997,538.495,0.0
52586.0,STARLINK-3910,PAYLOAD,2022-10-30 02:23:09,15.08842419,0.0001804,53.2187,225.496,49.1311,310.9837,0.00012436,1.692e-05,0.0,0 STARLINK-3910,1 52586U 22051BC  22303.09942055  .00001692  00000-0  12436-3 0  9997,2 52586  53.2187 225.4960 0001804  49.1311 310.9837 15.08842419 26410,6917.873000000001,95.437,540.986,538.49,0.0
52586.0,STARLINK-3910,PAYLOAD,2022-10-30 19:52:24,15.08837491,0.0001732,53.2181,222.2236,41.9705,318.1419,-2.1074e-06,-3.22e-06,0.0,0 STARLINK-3910,1 52586U 22051BC  22303.82806139 -.00000322  00000-0 -21074-5 0  9991,2 52586  53.2181 222.2236 0001732  41.9705 318.1419 15.08837491 26524,6917.888000000001,95.438,540.951,538.555,0.0
52586.0,STARLINK-3910,PAYLOAD,2022-10-31 02:13:57,15.08828776,0.0001888,53.2188,221.0357,45.6691,314.4456,-7.0695e-05,-1.413e-05,0.0,0 STARLINK-3910,1 52586U 22051BC  22304.09303049 -.00001413  00000-0 -70695-4 0  9997,2 52586  53.2188 221.0357 0001888  45.6691 314.4456 15.08828776 26569,6917.915,95.438,541.086,538.474,0.0
52586.0,STARLINK-3910,PAYLOAD,2022-10-31 19:43:12,15.08834133,0.0001898,53.2187,217.7652,47.2467,312.8685,3.4686e-05,2.64e-06,0.0,0 STARLINK-3910,1 52586U 22051BC  22304.82167061  .00000264  00000-0  34686-4 0  9991,2 52586  53.2187 217.7652 0001898  47.2467 312.8685 15.08834133 26748,6917.898,95.438,541.076,538.45,0.0
52586.0,STARLINK-3910,PAYLOAD,2022-11-01 03:40:07,15.08844219,0.0001914,53.2173,216.2779,50.7239,309.3923,0.00034069,5.139e-05,0.0,0 STARLINK-3910,1 52586U 22051BC  22305.15286589  .00005139  00000-0  34069-3 0  9995,2 52586  53.2173 216.2779 0001914  50.7239 309.3923 15.08844219 26799,6917.8669999999975,95.437,541.057,538.408,0.0
52586.0,STARLINK-3910,PAYLOAD,2022-11-01 13:12:26,15.08845529,0.0001984,53.217,214.4937,51.6963,308.4207,0.0005396,8.311e-05,0.0,0 STARLINK-3910,1 52586U 22051BC  22305.55030891  .00008311  00000-0  53960-3 0  9998,2 52586  53.2170 214.4937 0001984  51.6963 308.4207 15.08845529 26782,6917.863,95.437,541.101,538.356,0.0
52586.0,STARLINK-3910,PAYLOAD,2022-11-02 00:20:08,15.08839848,0.0001982,53.2169,212.4118,46.8078,313.3079,0.00031927,4.797e-05,0.0,0 STARLINK-3910,1 52586U 22051BC  22306.01399236  .00004797  00000-0  31927-3 0  9994,2 52586  53.2169 212.4118 0001982  46.8078 313.3079 15.08839848 26925,6917.880999999999,95.438,541.117,538.375,0.0
52586.0,STARLINK-3910,PAYLOAD,2022-11-02 11:27:50,15.08840986,0.0002024,53.2171,210.3309,47.542,312.5743,0.00022988,3.372e-05,0.0,0 STARLINK-3910,1 52586U 22051BC  22306.47767252  .00003372  00000-0  22988-3 0  9996,2 52586  53.2171 210.3309 0002024  47.5420 312.5743 15.08840986 26928,6917.877,95.437,541.143,538.342,0.0
52586.0,STARLINK-3910,PAYLOAD,2022-11-02 19:24:46,15.08835681,0.0001661,53.2179,208.8442,52.4152,307.6991,0.00010199,1.335e-05,0.0,0 STARLINK-3910,1 52586U 22051BC  22306.80887553  .00001335  00000-0  10199-3 0  9998,2 52586  53.2179 208.8442 0001661  52.4152 307.6991 15.08835681 26970,6917.894,95.438,540.908,538.61,0.0
52586.0,STARLINK-3910,PAYLOAD,2022-11-03 00:10:55,15.08843112,0.0001645,53.2176,207.9516,49.1338,310.9797,0.00018132,2.599e-05,0.0,0 STARLINK-3910,1 52586U 22051BC  22307.00759229  .00002599  00000-0  18132-3 0  9997,2 52586  53.2176 207.9516 0001645  49.1338 310.9797 15.08843112 27071,6917.871,95.437,540.874,538.5980000000002,0.0
52586.0,STARLINK-3910,PAYLOAD,2022-11-03 20:50:55,15.08870144,0.0001656,53.2178,204.0865,46.483,313.6299,0.00075384,0.0001174,0.0,0 STARLINK-3910,1 52586U 22051BC  22307.86870025  .00011740  00000-0  75384-3 0  9999,2 52586  53.2178 204.0865 0001656  46.4830 313.6299 15.08870144 27136,6917.788000000001,95.436,540.799,538.508,0.0
52586.0,STARLINK-3910,PAYLOAD,2022-11-04 03:12:28,15.08874994,0.0002188,53.218,202.8993,35.1844,324.9292,0.00066985,0.00010399,0.0,0 STARLINK-3910,1 52586U 22051BC  22308.13365765  .00010399  00000-0  66985-3 0  9996,2 52586  53.2180 202.8993 0002188  35.1844 324.9292 15.08874994 27245,6917.773,95.435,541.1519999999998,538.125,0.0
52586.0,STARLINK-3910,PAYLOAD,2022-11-04 12:44:46,15.08863015,0.0001424,53.2172,201.1112,70.0206,290.094,0.00023371,3.436e-05,0.0,0 STARLINK-3910,1 52586U 22051BC  22308.53109247  .00003436  00000-0  23371-3 0  9997,2 52586  53.2172 201.1112 0001424  70.0206 290.0940 15.08863015 27237,6917.81,95.436,540.66,538.69,0.0
52586.0,STARLINK-3910,PAYLOAD,2022-11-04 19:06:19,15.08838271,0.0001816,53.2178,199.9245,45.5719,314.5422,-0.00053194,-8.744e-05,0.0,0 STARLINK-3910,1 52586U 22051BC  22308.79605641 -.00008744  00000-0 -53194-3 0  9999,2 52586  53.2178 199.9245 0001816  45.5719 314.5422 15.08838271 27340,6917.886,95.438,541.007,538.494,0.0
52586.0,STARLINK-3910,PAYLOAD,2022-11-04 23:52:28,15.08838845,0.0001826,53.218,199.032,50.2593,309.8559,-0.00018578,-3.244e-05,0.0,0 STARLINK-3910,1 52586U 22051BC  22308.99477848 -.00003244  00000-0 -18578-3 0  9994,2 52586  53.2180 199.0320 0001826  50.2593 309.8559 15.08838845 27303,6917.884,95.438,541.012,538.486,0.0
52586.0,STARLINK-3910,PAYLOAD,2022-11-06 01:18:41,15.0880719,0.0001888,53.2178,194.276,50.602,309.5139,0.00013363,1.837e-05,0.0,0 STARLINK-3910,1 52586U 22051BC  22310.05464411  .00001837  00000-0  13363-3 0  9997,2 52586  53.2178 194.2760 0001888  50.6020 309.5139 15.08807190 27537,6917.981,95.44,541.1519999999998,538.54,0.0
52586.0,STARLINK-3910,PAYLOAD,2022-11-06 20:23:19,15.08824638,0.0001776,53.2176,190.7068,49.5696,310.5451,0.00036029,5.448e-05,0.0,0 STARLINK-3910,1 52586U 22051BC  22310.84953222  .00005448  00000-0  36029-3 0  9993,2 52586  53.2176 190.7068 0001776  49.5696 310.5451 15.08824638 27657,6917.927,95.439,541.021,538.564,0.0
52586.0,STARLINK-3910,PAYLOAD,2022-11-07 18:38:43,15.0884765,0.0001804,53.2173,186.5436,48.5567,311.558,0.00059471,9.191e-05,0.0,0 STARLINK-3910,1 52586U 22051BC  22311.77689256  .00009191  00000-0  59471-3 0  9994,2 52586  53.2173 186.5436 0001804  48.5567 311.5580 15.08847650 27792,6917.857,95.437,540.97,538.474,0.0
52586.0,STARLINK-3910,PAYLOAD,2022-11-08 08:57:10,15.08869531,0.0001789,53.2168,183.8674,49.1296,310.9851,0.00078562,0.00012247,0.0,0 STARLINK-3910,1 52586U 22051BC  22312.37304147  .00012247  00000-0  78562-3 0  9992,2 52586  53.2168 183.8674 0001789  49.1296 310.9851 15.08869531 27884,6917.79,95.436,540.893,538.418,0.0
